OBJECT_NAME,OBJECT_ID,EPOCH,MEAN_MOTION,ECCENTRICITY,INCLINATION,RA_OF_ASC_NODE,ARG_OF_PERICENTER,MEAN_ANOMALY,EPHEMERIS_TYPE,CLASSIFICATION_TYPE,NORAD_CAT_ID,ELEMENT_SET_NO,REV_AT_EPOCH,BSTAR,MEAN_MOTION_DOT,MEAN_MOTION_DDOT
STARLINK-31984,2024-111C,2026-06-06T08:07:42.644928,15.30205342,.00011575,53.1602,24.0298,91.2781,268.8352,0,U,60018,999,11245,.39895691E-4,.823E-5,0
STARLINK-31986,2024-111D,2026-06-06T07:53:59.326368,15.30256423,.00014757,53.1601,23.9693,85.8083,274.3086,0,U,60019,999,11261,.10369812E-3,.2718E-4,0
STARLINK-31883,2024-111E,2026-06-06T08:22:55.306272,15.30187369,.00010432,53.1607,24.0983,104.5240,255.5876,0,U,60020,999,11255,-.26677202E-4,-.1149E-4,0
STARLINK-31967,2024-111F,2026-06-05T22:08:11.100480,15.34394477,.00012061,53.1606,24.2889,105.3179,254.7957,0,U,60021,999,11257,.56214018E-4,.1523E-4,0
STARLINK-31982,2024-111G,2026-06-05T20:25:17.641632,15.34394008,.00008711,53.1610,24.5484,93.6508,266.4594,0,U,60022,999,11256,.24583219E-4,.455E-5,0
STARLINK-31992,2024-111H,2026-06-06T07:46:26.402880,15.30202355,.00013326,53.1622,23.9416,79.5204,280.5947,0,U,60023,999,11261,.49491257E-4,.1107E-4,0
STARLINK-31990,2024-111J,2026-06-05T22:16:08.395680,15.30120543,.00019208,53.1604,25.7336,132.2192,227.8972,0,U,60024,999,11254,-.32703711E-3,-.10009E-3,0
STARLINK-31939,2024-111L,2026-06-05T21:56:16.840320,15.30208586,.00021175,53.1604,25.6521,18.0184,342.0891,0,U,60026,999,11254,.80593514E-4,.2029E-4,0
STARLINK-32012,2024-111M,2026-06-05T22:00:51.048000,15.30199958,.00012331,53.1614,25.6630,107.4768,252.6368,0,U,60027,999,11254,.51276608E-4,.116E-4,0
STARLINK-32008,2024-111N,2026-06-06T05:57:11.744640,15.30221058,.00009964,53.1580,24.1716,116.7811,243.3292,0,U,60028,999,11259,.92828554E-3,.27253E-3,0
STARLINK-32006,2024-111P,2026-06-06T07:44:55.586976,15.30199364,.00012023,53.1609,23.9340,87.7963,272.3175,0,U,60029,999,11260,.10032052E-3,.2613E-4,0
STARLINK-32011,2024-111Q,2026-06-05T20:31:22.033632,15.34387745,.00014007,53.1613,24.5802,88.6855,271.4308,0,U,60030,999,11255,.14734458E-4,.121E-5,0
STARLINK-31878,2024-111R,2026-06-06T15:04:54.179904,15.34400432,.00008134,53.1615,330.3286,49.7158,310.3916,0,U,60031,999,11313,.25724418E-4,.493E-5,0
STARLINK-32017,2024-111S,2026-06-06T07:51:02.435328,15.30160188,.00007857,53.1610,23.9786,145.7480,214.3571,0,U,60032,999,11260,-.16168221E-3,-.5138E-4,0
STARLINK-32005,2024-111U,2026-06-05T22:11:29.723712,15.30204279,.00012525,53.1608,25.7128,91.0884,269.0260,0,U,60034,999,11244,.10671103E-3,.2803E-4,0
STARLINK-31981,2024-111V,2026-06-06T08:03:09.344448,15.30196501,.00011693,53.1607,24.0123,110.6513,249.4614,0,U,60035,999,11253,.30239728E-4,.536E-5,0
STARLINK-31985,2024-111W,2026-06-06T07:58:35.501376,15.30199875,.00011433,53.1606,23.9837,81.1507,278.9623,0,U,60036,999,11254,.45463899E-4,.988E-5,0
STARLINK-31918,2024-111X,2026-06-05T21:51:44.347680,15.30192068,.00011139,53.1617,25.6235,84.8409,275.2719,0,U,60037,999,11247,.3944731E-5,-.242E-5,0
STARLINK-11129 [DTC],2024-112A,2026-06-06T19:24:03.148128,15.69703984,.00007465,53.1580,187.2702,134.4205,225.6874,0,U,60038,999,11497,.19371185E-4,.1759E-4,0
STARLINK-11140 [DTC],2024-112B,2026-06-06T08:35:12.226560,15.69714021,.00013421,53.1582,189.4412,78.7976,281.3193,0,U,60039,999,11490,.62941156E-4,.7044E-4,0
STARLINK-11122 [DTC],2024-112C,2026-06-06T08:28:07.575744,15.69722140,.0001503,53.1592,189.4066,110.0731,250.0448,0,U,60040,999,11490,.13462606E-4,.1043E-4,0
STARLINK-11149 [DTC],2024-112D,2026-06-06T19:02:51.874944,15.69709346,.00010711,53.1595,187.1784,69.8624,290.2509,0,U,60041,999,11497,.30570836E-4,.3116E-4,0
STARLINK-11120 [DTC],2024-112E,2026-06-05T09:18:45.850752,15.69703300,.00015916,53.1580,194.0457,149.0955,211.0157,0,U,60042,999,11475,-.1254612E-5,-.741E-5,0
STARLINK-11086 [DTC],2024-112F,2026-06-05T09:11:42.260064,15.69705688,.00008426,53.1586,194.0194,117.7740,242.3363,0,U,60043,999,11475,-.5455662E-5,-.1249E-4,0
STARLINK-11148 [DTC],2024-112G,2026-06-06T18:41:39.760224,15.69719201,.00008572,53.1584,187.0767,54.1650,305.9447,0,U,60044,999,11497,.12412029E-4,.916E-5,0
STARLINK-11116 [DTC],2024-112H,2026-06-05T08:57:34.580160,15.69709566,.00012475,53.1600,193.9501,76.0602,284.0555,0,U,60045,999,11475,.4571004E-5,-.35E-6,0
STARLINK-11155 [DTC],2024-112J,2026-06-06T09:17:26.009376,15.69727410,.00010516,53.1582,188.8984,71.1030,289.0102,0,U,60046,999,11491,.24506524E-4,.2383E-4,0
STARLINK-11163 [DTC],2024-112K,2026-06-06T09:10:22.399680,15.69720824,.00010201,53.1590,188.8653,102.8573,257.2559,0,U,60047,999,11491,.16429803E-4,.1403E-4,0
STARLINK-11135 [DTC],2024-112L,2026-06-06T19:31:00.658848,15.69683314,.00010435,53.1590,186.5875,111.0565,249.0564,0,U,60048,999,11498,-.26933889E-4,-.3846E-4,0
STARLINK-11151 [DTC],2024-112M,2026-06-06T09:03:18.590400,15.69720136,.00005776,53.1578,188.8282,72.6658,287.4423,0,U,60049,999,11491,.16456988E-4,.1407E-4,0
