STARLINK-31984          
1 60018U 24111C   26157.33868802  .00000823  00000+0  39896-4 0  9994
2 60018  53.1602  24.0298 0001157  91.2781 268.8352 15.30205342112453
STARLINK-31986          
1 60019U 24111D   26157.32915887  .00002718  00000+0  10370-3 0  9990
2 60019  53.1601  23.9693 0001475  85.8083 274.3086 15.30256423112617
STARLINK-31883          
1 60020U 24111E   26157.34925123 -.00001149  00000+0 -26677-4 0  9995
2 60020  53.1607  24.0983 0001043 104.5240 255.5876 15.30187369112557
STARLINK-31967          
1 60021U 24111F   26156.92235070  .00001523  00000+0  56214-4 0  9998
2 60021  53.1606  24.2889 0001206 105.3179 254.7957 15.34394477112572
STARLINK-31982          
1 60022U 24111G   26156.85089863  .00000455  00000+0  24583-4 0  9995
2 60022  53.1610  24.5484 0000871  93.6508 266.4594 15.34394008112560
STARLINK-31992          
1 60023U 24111H   26157.32391670  .00001107  00000+0  49491-4 0  9991
2 60023  53.1622  23.9416 0001332  79.5204 280.5947 15.30202355112615
STARLINK-31990          
1 60024U 24111J   26156.92787495 -.00010009  00000+0 -32704-3 0  9992
2 60024  53.1604  25.7336 0001920 132.2192 227.8972 15.30120543112545
STARLINK-31939          
1 60026U 24111L   26156.91408380  .00002029  00000+0  80594-4 0  9998
2 60026  53.1604  25.6521 0002117  18.0184 342.0891 15.30208586112547
STARLINK-32012          
1 60027U 24111M   26156.91725750  .00001160  00000+0  51277-4 0  9993
2 60027  53.1614  25.6630 0001233 107.4768 252.6368 15.30199958112546
STARLINK-32008          
1 60028U 24111N   26157.24805260  .00027253  00000+0  92829-3 0  9994
2 60028  53.1580  24.1716 0000996 116.7811 243.3292 15.30221058112590
STARLINK-32006          
1 60029U 24111P   26157.32286559  .00002613  00000+0  10032-3 0  9997
2 60029  53.1609  23.9340 0001202  87.7963 272.3175 15.30199364112607
STARLINK-32011          
1 60030U 24111Q   26156.85511613  .00000121  00000+0  14734-4 0  9994
2 60030  53.1613  24.5802 0001400  88.6855 271.4308 15.34387745112552
STARLINK-31878          
1 60031U 24111R   26157.62840486  .00000493  00000+0  25724-4 0  9997
2 60031  53.1615 330.3286 0000813  49.7158 310.3916 15.34400432113132
STARLINK-32017          
1 60032U 24111S   26157.32711152 -.00005138  00000+0 -16168-3 0  9996
2 60032  53.1610  23.9786 0000785 145.7480 214.3571 15.30160188112609
STARLINK-32005          
1 60034U 24111U   26156.92464958  .00002803  00000+0  10671-3 0  9999
2 60034  53.1608  25.7128 0001252  91.0884 269.0260 15.30204279112443
STARLINK-31981          
1 60035U 24111V   26157.33552482  .00000536  00000+0  30240-4 0  9992
2 60035  53.1607  24.0123 0001169 110.6513 249.4614 15.30196501112537
STARLINK-31985          
1 60036U 24111W   26157.33235534  .00000988  00000+0  45464-4 0  9994
2 60036  53.1606  23.9837 0001143  81.1507 278.9623 15.30199875112549
STARLINK-31918          
1 60037U 24111X   26156.91092995 -.00000242  00000+0  39447-5 0  9999
2 60037  53.1617  25.6235 0001113  84.8409 275.2719 15.30192068112476
STARLINK-11129 [DTC]    
1 60038U 24112A   26157.80836977  .00001759  00000+0  19371-4 0  9992
2 60038  53.1580 187.2702 0000746 134.4205 225.6874 15.69703984114972
STARLINK-11140 [DTC]    
1 60039U 24112B   26157.35778040  .00007044  00000+0  62941-4 0  9993
2 60039  53.1582 189.4412 0001342  78.7976 281.3193 15.69714021114905
STARLINK-11122 [DTC]    
1 60040U 24112C   26157.35286546  .00001043  00000+0  13463-4 0  9998
2 60040  53.1592 189.4066 0001503 110.0731 250.0448 15.69722140114908
STARLINK-11149 [DTC]    
1 60041U 24112D   26157.79365596  .00003116  00000+0  30571-4 0  9992
2 60041  53.1595 187.1784 0001071  69.8624 290.2509 15.69709346114970
STARLINK-11120 [DTC]    
1 60042U 24112E   26156.38803068 -.00000741  00000+0 -12546-5 0  9994
2 60042  53.1580 194.0457 0001591 149.0955 211.0157 15.69703300114754
STARLINK-11086 [DTC]    
1 60043U 24112F   26156.38312801 -.00001249  00000+0 -54557-5 0  9997
2 60043  53.1586 194.0194 0000842 117.7740 242.3363 15.69705688114758
STARLINK-11148 [DTC]    
1 60044U 24112G   26157.77893241  .00000916  00000+0  12412-4 0  9995
2 60044  53.1584 187.0767 0000857  54.1650 305.9447 15.69719201114974
STARLINK-11116 [DTC]    
1 60045U 24112H   26156.37331690 -.00000035  00000+0  45710-5 0  9997
2 60045  53.1600 193.9501 0001247  76.0602 284.0555 15.69709566114756
STARLINK-11155 [DTC]    
1 60046U 24112J   26157.38710659  .00002383  00000+0  24507-4 0  9993
2 60046  53.1582 188.8984 0001051  71.1030 289.0102 15.69727410114917
STARLINK-11163 [DTC]    
1 60047U 24112K   26157.38220370  .00001403  00000+0  16430-4 0  9998
2 60047  53.1590 188.8653 0001020 102.8573 257.2559 15.69720824114915
STARLINK-11135 [DTC]    
1 60048U 24112L   26157.81320207 -.00003846  00000+0 -26934-4 0  9992
2 60048  53.1590 186.5875 0001043 111.0565 249.0564 15.69683314114989
STARLINK-11151 [DTC]    
1 60049U 24112M   26157.37729850  .00001407  00000+0  16457-4 0  9999
2 60049  53.1578 188.8282 0000577  72.6658 287.4423 15.69720136114916
